H1 CPF 01  gfz 2022 10 29 12  8022 terrasarx 
H2 0702601  6201 31698    2022 10 29 12 59 42 2022 11 03 00 00 42   120 1 1  0 0 0
H9
10 0 59883  23022.000000  0    -860333.261    971110.195   6754609.706
10 0 59883  23142.000000  0      54287.298    891417.884   6819733.691
10 0 59883  23262.000000  0     966291.059    780190.366   6765046.430
10 0 59883  23382.000000  0    1859235.181    639556.354   6591502.306
10 0 59883  23502.000000  0    2717047.519    472441.215   6302130.129
10 0 59883  23622.000000  0    3524316.212    282508.339   5901984.676
10 0 59883  23742.000000  0    4266569.255     74082.475   5398063.526
10 0 59883  23862.000000  0    4930538.175   -147943.520   4799190.679
10 0 59883  23982.000000  0    5504401.852   -378216.921   4115867.840
10 0 59883  24102.000000  0    5978006.224   -611046.134   3360095.080
10 0 59883  24222.000000  0    6343054.935   -840531.912   2545161.888
10 0 59883  24342.000000  0    6593264.539  -1060705.825   1685411.213
10 0 59883  24462.000000  0    6724479.554  -1265672.602    795982.958
10 0 59883  24582.000000  0    6734748.028  -1449753.653   -107458.379
10 0 59883  24702.000000  0    6624352.125  -1607627.577  -1009009.485
10 0 59883  24822.000000  0    6395791.954  -1734462.935  -1892816.936
10 0 59883  24942.000000  0    6053725.590  -1826041.092  -2743364.311
10 0 59883  25062.000000  0    5604865.599  -1878865.524  -3545749.942
10 0 59883  25182.000000  0    5057836.924  -1890255.060  -4285949.808
10 0 59883  25302.000000  0    4423000.462  -1858418.844  -4951061.268
10 0 59883  25422.000000  0    3712245.950  -1782512.338  -5529523.459
10 0 59883  25542.000000  0    2938759.495  -1662672.938  -6011309.514
10 0 59883  25662.000000  0    2116773.635  -1500034.273  -6388089.150
10 0 59883  25782.000000  0    1261303.598  -1296719.467  -6653362.743
10 0 59883  25902.000000  0     387873.311  -1055814.328  -6802562.508
10 0 59883  26022.000000  0    -487762.207   -781321.035  -6833122.547
10 0 59883  26142.000000  0   -1349894.637   -478092.626  -6744517.787
10 0 59883  26262.000000  0   -2183137.954   -151749.055  -6538272.202
10 0 59883  26382.000000  0   -2972696.761    191424.103  -6217934.270
10 0 59883  26502.000000  0   -3704623.305    544592.380  -5789022.730
10 0 59883  26622.000000  0   -4366062.906    900503.846  -5258942.036
10 0 59883  26742.000000  0   -4945481.917   1251632.418  -4636865.746
10 0 59883  26862.000000  0   -5432875.839   1590332.641  -3933590.188
10 0 59883  26982.000000  0   -5819951.137   1909002.095  -3161356.030
10 0 59883  27102.000000  0   -6100277.361   2200246.805  -2333642.414
10 0 59883  27222.000000  0   -6269406.025   2457047.233  -1464935.357
10 0 59883  27342.000000  0   -6324952.273   2672920.978   -570473.778
10 0 59883  27462.000000  0   -6266636.514   2842077.273    334022.445
10 0 59883  27582.000000  0   -6096282.922   2959559.200   1232636.593
10 0 59883  27702.000000  0   -5817774.967   3021370.432   2109543.916
10 0 59883  27822.000000  0   -5436969.064   3024582.171   2949299.285
10 0 59883  27942.000000  0   -4961569.715   2967418.186   3737116.991
10 0 59883  28062.000000  0   -4400967.688   2849314.847   4459137.408
10 0 59883  28182.000000  0   -3766046.813   2670955.580   5102672.773
10 0 59883  28302.000000  0   -3068965.591   2434279.882   5656429.540
10 0 59883  28422.000000  0   -2322917.007   2142466.535   6110704.575
10 0 59883  28542.000000  0   -1541872.080   1799890.724   6457550.261
10 0 59883  28662.000000  0    -740313.322   1412056.788   6690906.751
10 0 59883  28782.000000  0      67034.852    985507.907   6806700.579
10 0 59883  28902.000000  0     865475.917    527714.752   6802911.231
10 0 59883  29022.000000  0    1640607.644     46944.874   6679603.912
10 0 59883  29142.000000  0    2378580.572   -447885.697   6438928.975
10 0 59883  29262.000000  0    3066345.156   -947377.187   6085087.818
10 0 59883  29382.000000  0    3691884.634  -1441823.313   5624264.695
10 0 59883  29502.000000  0    4244428.982  -1921399.564   5064524.064
10 0 59883  29622.000000  0    4714644.874  -2376358.130   4415675.196
10 0 59883  29742.000000  0    5094800.751  -2797226.659   3689106.513
10 0 59883  29862.000000  0    5378902.711  -3175006.921   2897588.235
10 0 59883  29982.000000  0    5562795.503  -3501367.390   2055046.626
10 0 59883  30102.000000  0    5644226.908  -3768826.326   1176316.531
10 0 59883  30222.000000  0    5622874.951  -3970920.918    276874.275
10 0 59883  30342.000000  0    5500335.687  -4102356.475   -627442.382
10 0 59883  30462.000000  0    5280072.428  -4159133.562  -1520722.512
10 0 59883  30582.000000  0    4967326.808  -4138647.721  -2387270.753
10 0 59883  30702.000000  0    4568994.418  -4039760.822  -3211889.816
10 0 59883  30822.000000  0    4093469.286  -3862842.438  -3980151.066
10 0 59883  30942.000000  0    3550460.859  -3609780.171  -4678647.187
10 0 59883  31062.000000  0    2950789.465  -3283959.696  -5295222.706
10 0 59883  31182.000000  0    2306165.118  -2890215.368  -5819177.734
10 0 59883  31302.000000  0    1628956.286  -2434754.727  -6241442.925
10 0 59883  31422.000000  0     931952.139  -1925057.540  -6554727.217
10 0 59883  31542.000000  0     228121.510  -1369749.392  -6753633.473
10 0 59883  31662.000000  0    -469625.064   -778455.099  -6834740.951
10 0 59883  31782.000000  0   -1148666.480   -161634.140  -6796656.795
10 0 59883  31902.000000  0   -1796894.078    469600.151  -6640037.082
10 0 59883  32022.000000  0   -2402922.601   1103675.652  -6367576.122
10 0 59883  32142.000000  0   -2956285.741   1728768.219  -5983965.201
10 0 59883  32262.000000  0   -3447615.030   2333017.116  -5495821.017
10 0 59883  32382.000000  0   -3868800.521   2904747.456  -4911583.612
10 0 59883  32502.000000  0   -4213129.786   3432695.349  -4241381.278
10 0 59883  32622.000000  0   -4475400.309   3906230.816  -3496864.381
10 0 59883  32742.000000  0   -4652003.774   4315574.838  -2691011.744
10 0 59883  32862.000000  0   -4740981.347   4652005.170  -1837909.549
10 0 59883  32982.000000  0   -4742046.782   4908045.855   -952507.131
10 0 59883  33102.000000  0   -4656577.290   5077636.298    -50352.483
10 0 59883  33222.000000  0   -4487568.668   5156273.936    852687.359
10 0 59883  33342.000000  0   -4239559.087   5141126.565   1740713.302
10 0 59883  33462.000000  0   -3918520.074   5031110.547   2598084.914
10 0 59883  33582.000000  0   -3531717.824   4826932.657   3409704.351
10 0 59883  33702.000000  0   -3087549.972   4531096.109   4161288.093
10 0 59883  33822.000000  0   -2595362.780   4147870.856   4839622.225
10 0 59883  33942.000000  0   -2065251.820   3683228.073   5432796.215
10 0 59883  34062.000000  0   -1507851.866   3144740.736   5930410.308
10 0 59883  34182.000000  0    -934120.680   2541453.452   6323753.257
10 0 59883  34302.000000  0    -355122.371   1883724.428   6605947.649
10 0 59883  34422.000000  0     218185.138   1183044.713   6772064.156
10 0 59883  34542.000000  0     775157.324    451835.121   6819202.545
10 0 59883  34662.000000  0    1305659.640   -296773.554   6746538.447
10 0 59883  34782.000000  0    1800250.930  -1049175.437   6555337.853
10 0 59883  34902.000000  0    2250351.210  -1791536.251   6248936.553
10 0 59883  35022.000000  0    2648391.431  -2510047.225   5832686.736
10 0 59883  35142.000000  0    2987943.250  -3191183.308   5313868.906
10 0 59883  35262.000000  0    3263825.199  -3821960.340   4701570.277
10 0 59883  35382.000000  0    3472184.581  -4390186.797   4006531.505
10 0 59883  35502.000000  0    3610553.231  -4884705.788   3240961.701
10 0 59883  35622.000000  0    3677874.565  -5295620.456   2418324.922
10 0 59883  35742.000000  0    3674502.039  -5614498.444   1553101.521
10 0 59883  35862.000000  0    3602168.275  -5834549.697    660528.443
10 0 59883  35982.000000  0    3463925.531  -5950771.961   -243675.465
10 0 59883  36102.000000  0    3264060.537  -5960063.423  -1143594.216
10 0 59883  36222.000000  0    3007981.976  -5861295.574  -2023405.027
10 0 59883  36342.000000  0    2702086.568  -5655346.361  -2867663.431
10 0 59883  36462.000000  0    2353606.882  -5345093.105  -3661580.764
10 0 59883  36582.000000  0    1970443.894  -4935364.544  -4391286.140
10 0 59883  36702.000000  0    1560989.384  -4432854.708  -5044066.139
10 0 59883  36822.000000  0    1133944.782  -3846002.870  -5608579.935
10 0 59883  36942.000000  0     698138.937  -3184842.455  -6075047.650
10 0 59883  37062.000000  0     262348.166  -2460822.503  -6435408.853
10 0 59883  37182.000000  0    -164877.093  -1686605.474  -6683450.534
10 0 59883  37302.000000  0    -575375.664   -875845.150  -6814903.927
10 0 59883  37422.000000  0    -961526.657    -42948.152  -6827510.245
10 0 59883  37542.000000  0   -1316387.183    797176.940  -6721054.212
10 0 59883  37662.000000  0   -1633814.314   1629379.420  -6497367.019
10 0 59883  37782.000000  0   -1908568.892   2438532.847  -6160297.976
10 0 59883  37902.000000  0   -2136401.454   3209804.320  -5715656.826
10 0 59883  38022.000000  0   -2314118.304   3928924.160  -5171123.592
10 0 59883  38142.000000  0   -2439626.766   4582450.763  -4536127.786
10 0 59883  38262.000000  0   -2511958.907   5158026.604  -3821695.391
10 0 59883  38382.000000  0   -2531271.800   5644618.056  -3040265.411
10 0 59883  38502.000000  0   -2498824.389   6032735.132  -2205480.875
10 0 59883  38622.000000  0   -2416931.876   6314627.912  -1331954.032
10 0 59883  38742.000000  0   -2288897.513   6484450.096   -435009.085
10 0 59883  38862.000000  0   -2118924.042   6538388.460    469588.803
10 0 59883  38982.000000  0   -1912006.084   6474755.682   1365919.077
10 0 59883  39102.000000  0   -1673804.082   6294035.803   2238197.850
10 0 59883  39222.000000  0   -1410504.826   5998884.758   3071064.394
10 0 59883  39342.000000  0   -1128673.215   5594088.352   3849857.890
10 0 59883  39462.000000  0    -835099.119   5086479.249   4560880.377
99
